address,zipcode,lattitude,longitude
1200 S Linn White Dr,60605,41.864502,-87.609197
1200 S Lake Shore Drive,60605,41.868755,-87.617531
3155 S Lake Shore Dr,60615,41.80685,-87.586141
4100 S Lake Shore Drive,60653,41.80685,-87.586141
5700 S Lake Shore Drive,60637,41.792018,-87.580307
5700 South Lake Shore Drive,60611,41.792018,-87.580307
6401 S Stony Island Ave,60637,41.778764,-87.586422
5900 S Lake Shore Drive,60637,41.788198,-87.577915
6300 S Lake Shore Drive,60649,41.782787,-87.576065
6301 S Lake Shore Drive,60637,41.783009,-87.576056
1440 North Humboldt Drive,60622,41.906454,-87.701389
2045 N Lincoln Park West,60614,41.919658,-87.636379
6205 N Sheridan Rd,60660,41.994711,-87.655536
337 E Randolph St,60602,41.884284,-87.622394
49 E 95th St,60619,41.721692,-87.622178
1200 S Linn White Dr,60605,41.864502,-87.609197
1200 S Lake Shore Drive,60605,41.868755,-87.617531
3155 S Lake Shore Dr,60615,41.80685,-87.586141
4100 S Lake Shore Drive,60653,41.80685,-87.586141
5700 S Lake Shore Drive,60637,41.792018,-87.580307
5700 South Lake Shore Drive,60611,41.792018,-87.580307
6401 S Stony Island Ave,60637,41.778764,-87.586422
5900 S Lake Shore Drive,60637,41.788198,-87.577915
6300 S Lake Shore Drive,60649,41.782787,-87.576065
6301 S Lake Shore Drive,60637,41.783009,-87.576056
1440 North Humboldt Drive,60622,41.906454,-87.701389
2045 N Lincoln Park West,60614,41.919658,-87.636379
6205 N Sheridan Rd,60660,41.994711,-87.655536
337 E Randolph St,60602,41.884284,-87.622394
49 E 95th St,60619,41.721692,-87.622178
49 E 95th St,60619,41.721692,-87.622178
2045 N Lincoln Park West,60614,41.919658,-87.636379
11250 S Ada St,60643,41.68911,-87.655659
11250 S Ada St,60643,41.68911,-87.655659
1919 N Seminary Ave,60614,41.916495,-87.655352
7535 S Dobson Ave,60619,41.757522,-87.599291
550 E Grand Ave,60611,41.891947,-87.612329
1434 S Loomis,60608,41.862363,-87.661434
1434 S Loomis Street,60608,41.862363,-87.661434
2045 N Lincoln Park West,60614,41.919658,-87.636379
1300 S Lake Shore Dr,60605,41.865275,-87.619044
1521 S Linn White Dr,60605,41.860664,-87.610261
541 N Fairbanks Ct,60611,41.892398,-87.620189
100 N Central Park Ave,60624,41.881566,-87.715877
337 E Randolph St,60602,41.884284,-87.622394
3801 W 111th St,60655,41.691344,-87.715478
2133 N McVicker Ave,60639,41.918913,-87.77673
865 SPark Terrace,60605,41.867824,-87.623449
2045 N Lincoln Park West,60614,41.919658,-87.636379
2941 N Washtenaw Ave,60618,41.93513,-87.695246
2234 W 115th St,60643,41.684174,-87.677388
515 S Washtenaw Ave,60612,41.874341,-87.693699
515 S Washtenaw Ave,60612,41.874341,-87.693699
2045 N Lincoln Park West,60614,41.919658,-87.636379
1521 S Linn White Dr,60605,41.860664,-87.610261
6200 W Bloomingdale Ave,60639,41.912851,-87.778622
5110 N Damen Ave,60625,41.975187,-87.679392
7655 S Ingleside Ave,60619,41.755786,-87.60167
1611 S Wabash Avenue,60601,41.859732,-87.625649
1611 S Wabash Ave,60601,41.859732,-87.625649
1611 S Wabash Avenue,60601,41.859732,-87.625649
3748 South Prairie Avenue,60653,41.827101,-87.620457
3748 S Prairie Ave,60653,41.827101,-87.620457
5233 N Ashland Ave,60640,41.97709,-87.669595
2333 W Sunnyside Ave,60625,41.963199,-87.686423
11132 S St Lawrence Ave,60628,41.691841,-87.608403
11132 S St Lawrence,60628,41.692592,-87.540116
4901 S Kilbourn Ave,60632,41.803471,-87.735651
4901 S Kilbourn Ave,60632,41.803471,-87.735651
4901 S Kilbourn,60632,41.803471,-87.735651
860-880 Lake Shore Drive,60611,41.731699,-87.540105
3309 S Shields Ave,60616,41.834212,-87.635226
3823 S Union,60616,41.82458,-87.643514
3309 S Shields Ave,60616,41.834212,-87.635226
4433 S St Lawrence Ave,60653,41.813848,-87.611573
6644 S University Ave,60637,41.773674,-87.598464
801 S Loomis St,60607,41.871723,-87.6617
1400 South Lake Shore Drive,60605,41.865091,-87.619006
111 S Michigan Ave,60603,41.879537,-87.62425
2701 E 74th St,60649,41.762725,-87.558097
4807 W Gunnison St,60630,41.96893,-87.748189
4237 S Wabash Ave,60653,41.817125,-87.624659
2901 S Poplar Ave,60608,41.840916,-87.649304
6871 W Belden Ave,60707,41.921134,-87.798468
4639 N Kenmore Ave,60640,41.966376,-87.656194
3546 W Addison St,60618,41.946523,-87.717001
406 W Winneconna,60620,41.753403,-87.635183
406 W Winneconna Pkwy,60620,41.753403,-87.635183
406 W Winneconna Pkwy,60620,41.753403,-87.635183
4433 W Augusta Blvd,60651,41.898873,-87.737263
5951 W Lake St,60644,41.887101,-87.77418
6020 W Foster Ave,60630,41.975624,-87.778793
5610 W Lake St,60644,41.887286,-87.765528
5610 West Lake Street,60644,41.887286,-87.765528
5610 W Lake St,60644,41.887286,-87.765528
5951 W Lake St,60644,41.887101,-87.77418
6020 W Foster Ave,60630,41.975624,-87.778793
1215 E 83rd St,60619,41.744101,-87.594178
3516 W School St,60618,41.941075,-87.715252
3516 W School,60618,41.941075,-87.715252
3516 W School St,60618,41.941075,-87.715252
4922 S Throop,60609,41.804422,-87.657553
4922 S Throop St,60609,41.804422,-87.657553
4920 S Throop St,60609,41.804505,-87.657556
2434 S Leavitt St,60608,41.84776,-87.680639
2434 S Leavitt,60608,41.84776,-87.680639
2825 W Arthington St,60612,41.870157,-87.697038
10431 S Longwood Dr,60643,41.703851,-87.670833
2022 W Cermak Rd,60608,41.852195,-87.676424
2022 W Cermak,60608,41.852195,-87.676424
115 S Sangamon,60607,41.879642,-87.650804
115 S Sangamon St,60607,41.879642,-87.650804
9801 S Avenue G,60617,41.718303,-87.531025
1640 N Maplewood,60647,41.921058,-87.701101
9801 South Avenue G,60617,41.718303,-87.531025
2022 W Cermak,60608,41.852195,-87.676424
1801 S Calumet Ave,60616,41.857852,-87.619592
501 W Wisconsin St,60614,41.916469,-87.641172
6156 S Dearborn Ave,60637,41.780991,-87.604053
6156 S Dorchester Ave,60637,41.782542,-87.591405
6156 S DORCHESTER AVE,60637,41.782542,-87.591405
1725 N Springfield Ave,60647,41.912722,-87.723987
3020 N Oak Park Ave,60634,41.935253,-87.795593
3020 N Oak Park Ave,60634,41.935253,-87.795593
3600 North Recreation Drive,60613,41.948658,-87.642472
Belmont & Lake Shore Drive,60614,41.922605,-87.652064
220 E Chicago Ave,60611,41.896827,-87.621575
3925 E 104th St,60617,41.706372,-87.528927
2045 N Lincoln Park West,60614,41.919658,-87.636379
6205 N Sheridan Rd,60660,41.994711,-87.655536
Berger Park 6205 N Sheridan,60660,41.99387,-87.71856
6205 N Sheridan Rd,60660,41.994711,-87.655536
8930 S Muskegon Ave,60617,41.732921,-87.555452
8930 S Muskegon,60617,41.732902,-87.540289
5445 S Drexel Ave,60615,41.796547,-87.603877
2460 W 102nd St,60642,41.708192,-87.68277
1461 W Ohio St,60642,41.892511,-87.664597
11555 S Stony Island Ave,60617,41.685498,-87.57647
(1800N) between Ashland (1600W) and Ridgeway (3750W),60614,41.922605,-87.652064
4921 N Marine Drive,60640,41.962149,-87.646887
425 E 45th St,60653,41.813063,-87.615303
425 E 45th St,60653,41.813063,-87.615303
6743 South Kedzie Avenue,60629,41.77132,-87.702908
5641 S Kenwood Ave,60637,41.792818,-87.593229
2318 N Lavergne Ave,60639,41.923288,-87.751205
11500 S Homewood Ave,60643,41.685059,-87.670558
Unnamed Road,67749,44.369922,-88.592101
346 W 104th St,60628,41.705215,-87.632466
1600-3750 W Bloomingdale Ave,60647,41.914046,-87.683155
3939 W 79th St,60652,41.749467,-87.720399
1966 W 111th St,60643,41.691942,-87.671524
3601 W Arthington St,60624,41.869961,-87.715542
3044 S Bonfield St,60608,41.839316,-87.653609
3044 S Bonfield St,60608,41.839316,-87.653609
6644 S University Ave,60637,41.773674,-87.598464
1801 S Indiana Ave,60616,41.857935,-87.622279
9729 SYates Ave,60617,41.703667,-87.564441
9729 S Yates Ave,60617,41.703667,-87.564441
1246 W 92nd St,60620,41.726781,-87.65489
1246 W 92nd St,60620,41.726781,-87.65489
3285 N Elston Ave,60618,41.940677,-87.700149
3285 North Elston Avenue,60618,41.940677,-87.700149
(1800N) between Ashland (1600W) and Ridgeway (3750W),60614,41.922605,-87.652064
3501 S Richmond St,60632,41.828947,-87.698424
5917 N Broadway,60660,41.989368,-87.660177
5917 N Broadway Chicago,60660,41.989368,-87.660177
5917 N Broadway,60660,41.989368,-87.660177
5917 N Broadway Chicago,60660,41.989368,-87.660177
5400 N Broadway,60640,41.979924,-87.660006
4437 N Magnolia Ave,60640,41.962861,-87.660966
4542 S Greenwood Ave,60653,41.812117,-87.599326
7100 N Harlem Ave,60631,42.009873,-87.806655
7100 N Harlem Ave,60631,42.009873,-87.806655
634 E 86th St,60619,41.738442,-87.608371
Bryn Mawr & Lake Shore Drive,60614,40.04962,-74.14453
5636 N Pulaski Rd,60646,41.983938,-87.728473
2045 N Lincoln Park West,60614,41.919658,-87.636379
1049 W Buena Ave,60613,41.958232,-87.656314
4501 N California Ave,60625,41.963107,-87.698519
5917 N Broadway Chicago,60660,41.989368,-87.660177
1200-5700 S Lake Shore Drive,60615,41.80685,-87.586141
3900 S Lake Shore Dr,60615,41.80685,-87.586141
1559 S Lake Shore Drive,60615,41.80685,-87.586141
4700 S Lake Shore Dr,60615,41.80739,-87.586615
5400 S Lake Shore Dr,60615,41.802587,-87.583758
500 E Mc Fetridge Dr,60615,41.865009,-87.615537
Lakefront Trail,60616,41.844869,-87.629531
2616 South Shields Avenue,60616,41.844895,-87.63549
349 East 48th Street,60615,41.807568,-87.617608
9400 S Greenwood Ave,60619,41.723933,-87.597269
9400 S GREENWOOD AVE Chicago,60619,41.723933,-87.597269
1400 North Sacramento Avenue,60622,41.902765,-87.701791
4901 N Sheridan Rd,60640,41.971524,-87.654897
5324 S Woodlawn Ave,60615,41.798805,-87.596613
2200 E 103rd St,60617,41.708034,-87.568822
2045 N Lincoln Park West,60614,41.919658,-87.636379
3843 N California Ave,60618,41.950942,-87.698134
9801 S Avenue G,60617,41.718303,-87.531025
9801 S Avenue G,60617,41.718303,-87.531025
Calumet Park Fieldhouse,60617,41.66463,-87.66945
9806 S Ave G,60617,41.717821,-87.53159
9807 S Ave G,60617,41.717821,-87.53159
9803 S Ave G,60617,41.717823,-87.531589
9802 S Ave G,60617,41.717823,-87.531589
8500 South Green Bay Avenue,60617,41.743834,-87.541818
9801 S Avenue G,60617,41.718303,-87.531025
2750 S Ashland Ave,60608,41.841752,-87.665899
2701 S Ashland Ave,60608,41.842481,-87.665778
2900 S Ashland Ave,60608,41.839558,-87.665864
337 E Randolph St,60601,41.884351,-87.620142
4100 N Long Ave,60641,41.955113,-87.762131
1130 Midway Plaisance North,60637,41.780991,-87.604053
1224 W Carmen Ave,60640,41.974565,-87.660807
6153 S Carpenter St,60621,41.781533,-87.650926
1501 W Randolph St,60607,41.884747,-87.66427
939 E 132nd St,60827,41.655858,-87.599593
939 E 132nd St,60827,41.655858,-87.599593
939 E132nd St,60827,41.655858,-87.599593
5311 N Winthrop Ave,60640,41.978321,-87.657872
6068 N Northwest Highway,60631,41.991611,-87.797843
721 N Central Park Ave,60624,41.894234,-87.716306
1100 W Irving Park Rd,60613,41.954481,-87.657101
4227 S Greenwood Ave,60653,41.817375,-87.599389
2045 N Lincoln Park West,60614,41.919658,-87.636379
1425 N Damen Avenue,60622,41.907977,-87.677399
4701 N Ashland Ave,60640,41.967097,-87.669326
1130 Midway Plaisance North,60637,41.780991,-87.604053
7001 S Dante Ave,60611,41.767873,-87.589482
2045 N Lincoln Park West,60614,41.919658,-87.636379
1719 W Wolfram,60657,41.933247,-87.672892
3857 W 111th St,60655,41.691322,-87.716814
1601 North Clark Street,60614,41.911789,-87.631947
1801 S Indiana Ave,60616,41.857935,-87.622279
1801 S Indiana,60616,41.857935,-87.622279
2318 N Lavergne Ave,60639,41.923288,-87.751205
6748 N Sacramento Ave,60645,42.004271,-87.70461
6748 N Sacramento Ave,60645,42.004271,-87.70461
3420 N Long Ave,60641,41.943124,-87.76173
1533 S Christiana Ave,60623,41.860279,-87.709131
801 S Loomis St,60607,41.871723,-87.6617
1825 N Damen Ave,60614,41.921768,-87.677739
1825 N Damen Ave,60614,41.921768,-87.677739
6601 N Western Ave,60645,42.001363,-87.689946
2500 W Lunt Ave,60645,42.008606,-87.692536
2045 N Lincoln Park West,60614,41.919658,-87.636379
2334 W Flournoy St,60612,41.873023,-87.685071
301 S Columbus Dr,60601,41.87586,-87.620623
Congress Pkwy & Columbus Dr,60605,41.875893,-87.620624
399 South Columbus Drive,60605,41.877405,-87.620646
4501 N Clarendon Ave,60640,41.963681,-87.649962
4501 N Marine Drive,60640,41.963319,-87.64776
4501 N Clarendon Ave,60640,41.963681,-87.649962
4615 W Jackson Blvd,60644,41.876926,-87.740505
3400 N Rockwell St,60618,41.941159,-87.693092
3400 N Rockwell Ave,60618,41.946699,-87.703343
3400 N Rockwell St,60618,41.941159,-87.693092
3400 N Rockwell Ave,60618,41.946699,-87.703343
4615 W Jackson Blvd,60644,41.876926,-87.740505
2210 N Southport Ave,60614,41.921974,-87.663174
1755 N Clybourn Ave,60614,41.913169,-87.652608
5550 N Magnolia Ave,60640,41.983423,-87.661365
5554 N Magnolia,60640,41.983265,-87.661359
361 E 85th St,60619,41.740144,-87.615445
5445 S Drexel Ave,60615,41.796547,-87.603877
1466 S Wabash Ave,60605,41.862914,-87.62572
500 S Central Ave,60644,41.873961,-87.764595
500 S Central Ave,60644,41.873961,-87.764595
500 S Central,60644,41.873961,-87.764595
5701 W Jackson Boulevard Chicago,60644,41.877049,-87.7687
500 S Central Park Ave,60644,41.87436,-87.715693
350 S Central Ave,60644,41.875323,-87.764676
5793 W Adams Blvd,60644,41.877692,-87.769481
5701 W Jackson Blvd,60644,41.877049,-87.7687
2045 N Lincoln Park West,60614,41.919658,-87.636379
1434 S Loomis Street,60608,41.862363,-87.661434
630 N Kingsbury St,60606,41.88884,-87.638689
1845 W Rice St,60622,41.896879,-87.673798
1845 W Rice St,60622,41.896879,-87.673798
4701 N Ashland Ave,60640,41.967097,-87.669326
331 W 45th St,60609,41.812507,-87.634581
1331 W Adams St,60607,41.879027,-87.66071
1331 W Monroe St,60607,41.880283,-87.659439
410 W Chicago Ave,60654,41.896584,-87.639313
2460 W 102nd St,60655,41.708192,-87.68277
1501 W Randolph St,60607,41.884747,-87.66427
861 N Wabash Ave,60611,41.898195,-87.6269
861 North Wabash Avenue,60611,41.898195,-87.6269
4430 S Marshfield Ave,60609,41.813094,-87.6663
Lakefront Trail,60640,41.971888,-87.662232
11712 S Ada Street,60643,41.681236,-87.65541
5473 S Cornell Ave,60615,41.796057,-87.585409
1809 W 50th St,60609,41.803113,-87.670689
4850 S Cornell Dr,60615,41.801993,-87.602725
1809 W 50th St,60609,41.803113,-87.670689
9201 S Longwood Dr,60620,41.728389,-87.669265
44 W 15th St,60616,41.861908,-87.628949
5058 W West End Ave,60644,41.883048,-87.752542
5058 W End Ave,60644,41.883048,-87.752542
2045 N Lincoln Park West,60614,41.919658,-87.636379
2021 N Burling St,60614,41.919044,-87.647303
2611 N Lockwood Ave,60639,41.9282,-87.758743
1516 S Karlov Ave,60623,41.860025,-87.727445
2333 W Sunnyside Ave,60625,41.963199,-87.686423
2200 W 108th Pl,60643,41.696684,-87.677166
4500 N Lakeshore Drive | W Montrose,60607,41.918162,-83.335095
6404 N Kedzie,60645,41.997395,-87.709352
2045 N Lincoln Park West,60614,41.919658,-87.636379
4949 S Archer Ave,60632,41.80303,-87.722326
6340 N Lakewood,60660,41.90922,-87.784667
6340 N Lakewood Ave,60660,41.997563,-87.663015
3150 South Western Avenue,60608,41.83703,-87.684865
3150 S Western Ave,60608,41.83703,-87.684865
Damen Ave & Bloomingdale Ave,60606,41.914254,-87.677521
1521 S Linn White Dr,60605,41.860664,-87.610261
6743 S Kedzie Ave,60629,41.77132,-87.702908
4430 S Marshfield Ave,60609,41.813094,-87.6663
5427 W Division St,60651,41.902208,-87.761667
8052 S Damen Ave,60620,41.747193,-87.673082
8052 S Damen Ave,60620,41.747193,-87.673082
1805 N Albany Ave,60647,41.913836,-87.705141
4901 W Wabansia Ave,60639,41.911427,-87.749226
6056 N Landers Ave,60646,41.992218,-87.752125
9801 S Ave G,60617,41.718303,-87.531025
1344 N Dean St,60622,41.906864,-87.670368
1344 N Dean,60622,41.906864,-87.670368
301-405 123rd Street,60628,41.670645,-87.630637
865 SPark Terrace,60605,41.867824,-87.623449
1126 E 80th St,60619,41.749484,-87.596634
6401 S Stony Island Ave,60637,41.778764,-87.586422
5491 S Shore Drive,60615,41.795512,-87.580879
4101 N Lavergne Ave,60641,41.955198,-87.752268
100-162 East Harrison Street,60605,41.874459,-87.624694
141 W Diversey Parkway,60614,41.933364,-87.635128
2601 N Cannon Drive,60614,41.929954,-87.636256
2601 N Cannon Dr,60614,41.929954,-87.636256
8701 S Dauphin Ave,60619,41.7367,-87.6012
7521 S Dobson Ave,60619,41.757841,-87.599303
2732 WPolk St,60612,41.871087,-87.694368
1833 E 71st,60649,41.765192,-87.580897
1833 E 71st,60649,41.765192,-87.580897
1230 W School St,60657,41.941632,-87.660299
3620 S Lituanica Ave,60609,41.828268,-87.647671
3402 W 77th St,60652,41.753372,-87.707471
1041 W Columbia Ave,60626,42.00464,-87.65815
2021 N Burling St,60614,41.919044,-87.647303
9336 S Kingston Ave,60617,41.725316,-87.562028
1401 S Sacramento Dr,60623,41.862686,-87.701891
1401 S Sacramento Ave,60623,41.851615,-87.700348
1401 S Sacramento,60623,38.11497,-121.30728
1401 South Sacramento Drive,60623,41.862686,-87.701891
1400 S California Ave,60623,41.862606,-87.695794
1788 South California Avenue,60608,41.858308,-87.695652
1850 S Albany Ave,60623,41.85602,-87.702832
1470 S Albany Ave,60623,41.861673,-87.703003
1820 S Farrar Dr,60623,41.856766,-87.696458
1401 S Sacramento Dr,60623,41.862686,-87.701891
2045 N Lincoln Park West,60614,41.919658,-87.636379
1200 W 77th St,60620,41.754139,-87.653843
2710 S Dearborn,60616,41.843511,-87.628454
2710 S Dearborn C,60616,41.843511,-87.628454
6931 S Damen Ave,60636,41.767481,-87.673598
7442 N Ashland Ave,60626,42.017622,-87.670399
300 E 31st St,60616,41.838421,-87.618745
220 E 29th St,60616,41.841987,-87.621085
220 E 31st St,60616,41.838396,-87.620969
4638 N Melvina Ave,60630,41.965863,-87.781985
4638 N Melvina Ave,60630,41.965863,-87.781985
1359 South Indiana Avenue,60605,41.864285,-87.622384
8445 S Kolin Ave,60652,41.739289,-87.730091
421 W Locust St,60610,41.898931,-87.639013
111 N Lake Shore Drive,60601,41.891508,-87.613836
401 N Lake Shore Drive,60611,41.891113,-87.613814
740 E 56th Pl,60637,41.791646,-87.638971
401 N Lake Shore Dr,60611,41.891113,-87.613814
1119 W Cullerton St,60608,41.855228,-87.65395
1119 West Cullerton Street,60608,41.855228,-87.65395
2101 S May St,60608,41.853183,-87.654725
1119 W Cullerton St,60608,41.855228,-87.65395
555 E 51st St,60615,41.802148,-87.612113
2045 N Lincoln Park West,60614,41.919658,-87.636379
1001 W Wrightwood Ave,60614,41.929029,-87.653839
331 W 45th St,60609,41.812507,-87.634581
2400 E 82nd St,60617,41.746274,-87.565858
2400 East 82nd Street,60617,41.746274,-87.565858
1330 W Chicago Ave,60642,41.896208,-87.660751
1330 W Chicago Ave,60642,41.896208,-87.660751
6525 N Hiawatha Ave,60646,41.999284,-87.761796
4921 N Marine Drive,60640,41.962149,-87.646887
6755 N Northwest Hwy,60631,42.003833,-87.817838
711 W 60th Pl,60621,41.784229,-87.643012
2230 W Cortland St,60647,41.91611,-87.683588
2230 W Cortland St,60647,41.91611,-87.683588
2045 N Lincoln Park West,60614,41.919658,-87.636379
3520 S Cottage Grove Ave,60653,41.830713,-87.610379
3520 S Cottage Grove Avenue,60653,41.830713,-87.610379
707 E 37th St,60653,41.827815,-87.608547
3520 S Cottage Grove,60653,41.819261,-87.611244
535 E 35th St,60653,41.831156,-87.61277
5215 S Woodlawn Ave,60615,41.80037,-87.596638
3451 N Troy St,60618,41.944402,-87.706517
2021 N Burling St,60614,41.919044,-87.647303
5600 S Emerald Ave,60621,41.792258,-87.643874
Rainey Drive,60637,41.780991,-87.604053
201 East 111th Street,60628,41.692674,-87.616431
1824 S Wood St,60608,41.856825,-87.671063
1820 W Granville Ave,60660,41.994338,-87.676586
2045 N Lincoln Park West,60614,41.919658,-87.636379
Lakefront Trail,60613,41.953742,-87.661343
6201 South Stewart Ave,60621,41.782048,-87.635103
7687 S Chicago Ave,60619,41.744737,-87.60569
201 E 111th St,60628,41.692674,-87.616431
9800 S Parnell Ave,60628,41.716059,-87.637005
9800 S Parnell Ave,60628,41.716059,-87.637005
5100 N Ridgeway Ave,60625,41.973843,-87.722074
1701 N LaSalle St,60614,41.912623,-87.633097
631 W Belmont Ave,60657,41.940059,-87.645695
631 W Belmont Ave,60657,41.940059,-87.645695
1801 North Ridgeway Avenue,60647,41.914358,-87.720345
1809 W 50th St,60609,41.803113,-87.670689
2430 North Cannon Drive,60614,41.926984,-87.634285
1300 W Fargo Ave,60626,42.017217,-87.66344
337 E Randolph St,60601,41.884351,-87.620142
5001 S Cottage Grove Ave,60615,41.80412,-87.606447
2000 W Belmont Ave,60618,41.939585,-87.678926
10436 S Wallace St,60628,41.704167,-87.637884
9501 S Eggleston Ave,60628,41.721516,-87.633968
10436 S Wallace St,60628,41.704167,-87.637884
5100 N Ridgeway Ave,60625,41.973843,-87.722074
1822 W Larchmont Ave,60613,41.953278,-87.675041
6401 S Stony Island Ave,60637,41.778764,-87.586422
400-452 South Central Avenue,60644,41.874722,-87.76465
429 N Columbus Dr,60611,41.889873,-87.620234
2554 W Moffat St,60647,41.914811,-87.691807
6600 S Woodlawn Ave,60637,41.774934,-87.5961
2045 N Lincoln Park West,60614,41.919658,-87.636379
11555 S Stony Island Ave,60617,41.685498,-87.57647
5069 W Berwyn Ave,60630,41.977851,-87.754504
5069 W Berwyn Ave,60630,41.977851,-87.754504
1312 S Racine Ave,60608,41.864757,-87.65661
1313 S Throop St,60608,41.864712,-87.65882
1440 W 84th St,60620,41.741362,-87.659652
5200 N Lake Shore Dr,60611,41.903868,-87.624958
Foster & Lakeshore drive,60640,45.41572,-96.66933
1440 W 84th St,60620,41.741362,-87.659652
2045 N Lincoln Park West,60614,41.919658,-87.636379
4320 W 15th St,60623,41.860599,-87.73303
4320 W 15th Street,60624,41.860599,-87.73303
6566 N Avondale Ave,60631,41.999676,-87.814855
331 W 45th St,60609,41.812507,-87.634581
2411 W 55th St,60629,41.793908,-87.684334
2411 W 55th St,60609,41.793909,-87.683583
5729 W Bloomingdale Ave,60639,41.912565,-87.769515
2045 N Lincoln Park West,60614,41.919658,-87.636379
100 N Central Park Ave,60624,41.881566,-87.715877
300 N Central Park Ave,60624,41.886291,-87.716588
100 North Central Park Avenue,60624,41.881566,-87.715877
Garfield Park Fieldhouse,60624,41.87503,-87.70785
100 N Central Park,60624,41.881566,-87.715877
300 N Central Ave,60624,41.885902,-87.765026
100 N Central Park Ave,60624,41.881566,-87.715877
3430 W Madison St,60624,41.880928,-87.711764
160 N Homan Ave,60624,41.884549,-87.71113
1520 W Polk St,60607,41.871656,-87.664625
810 E 103rd St,60628,41.707498,-87.602881
744 E 103rd St,60628,41.707461,-87.605169
10201 South Cottage Grove Avenue,60628,41.707436,-87.60652
2045 N Lincoln Park West,60614,41.919658,-87.636379
5531 S Martin Luther King Dr,60637,41.792123,-87.615874
825 W Sheridan Rd,60613,41.952738,-87.650667
1448 S Trumbull Ave,60623,41.861663,-87.711641
1448 S Trumbull,60623,41.861663,-87.711641
9247 S Eggleston Ave,60620,41.72567,-87.634854
5421 N Menard Ave,60630,41.979015,-87.773258
3301 W Gladys Ave,60624,41.876243,-87.708447
2045 N Lincoln Park West,60614,41.919658,-87.636379
7043 N Glenwood Ave,60626,42.009706,-87.665819
13000 S Eberhart Ave,60627,41.692102,-87.61109
446 East 111th Place,60628,41.691886,-87.611299
13000 S Eberhart,60627,41.692102,-87.61109
4222 W Foster Ave,60630,41.975421,-87.73445
4222 W Foster Ave,60630,41.975421,-87.73445
4648 N Malden St,60640,41.966766,-87.662599
2045 N Lincoln Park West,60614,41.919658,-87.636379
1249 N Astor St,60610,41.905377,-87.627208
2741 W Montrose Ave,60618,41.961286,-87.697294
610-30 W Adams St,60661,41.879284,-87.642727
7655 S Ingleside Ave,60619,41.755786,-87.60167
7655 S Ingleside Ave,60619,41.755786,-87.60167
3529 W Grand Ave,60651,41.901547,-87.714683
3531 W Grand Ave,60651,41.901583,-87.714772
Stockton Dr & Webster Ave,60614,41.921998,-87.635694
5445 N Chester St,60656,41.974566,-87.817934
Columbus Drive,60601,41.885649,-87.620759
951 S Columbus Drive,60601,41.870358,-87.620531
1400 S Lake Shore Drive,60601,41.865091,-87.619006
1400 S Lake Shore Drive,60601,41.865091,-87.619006
Michigan & Jackson,60601,40.12005,-74.2518
Monroe & Lakeshore drive,60601,32.53658,-92.03462
Monroe & Columbus Drive,60601,41.885649,-87.620759
500 S Lake Shore Dr,60601,41.875919,-87.617113
601 S Michigan Ave,60601,41.87452,-87.62415
2850 W Avondale Ave,60618,41.936512,-87.704113
3000 North Avondale Avenue,60618,41.936823,-87.704701
1518 W 102nd Pl,60643,41.707271,-87.660397
1518 W 102nd Pl,60643,41.707271,-87.660397
6500 N Algonquin Ave,60646,41.999647,-87.766019
2650 W Peterson Ave,60659,41.990486,-87.696173
4300 W Wabansia Ave,60639,41.911605,-87.734207
4300 W Wabansia Ave,60639,41.911605,-87.734207
1208 W Jarvis Ave,60626,42.01614,-87.663509
2708 W Lawrence Ave,60625,41.968582,-87.696668
1520 W Polk St,60607,41.871656,-87.664625
1425 N Damen Ave,60622,41.907977,-87.677399
4532 S Greenwood Ave,60653,41.812286,-87.599333
2402 N Washtenaw Ave,60647,41.924954,-87.694974
2402 N Washtenaw,60647,41.924954,-87.694974
2402 N Washtenaw Ave,60647,41.924954,-87.694974
337 E Randolph St,60602,41.884284,-87.622394
247 W 23rd Pl,60616,41.850037,-87.633813
6258 W 62nd St,60638,41.779615,-87.777845
513 W 72nd St,60621,41.763495,-87.637669
513 W 72nd St,60621,41.763495,-87.637669
513 W 72ND ST Chicago,60621,41.763495,-87.637669
3035 N Hoyne Ave,60618,41.93713,-87.680689
3035 N Hoyne Ave,60618,41.93713,-87.680689
2045 N Lincoln Park West,60614,41.919658,-87.636379
5635 S Indiana Ave,60637,41.792314,-87.620775
3917 W Division St,60651,41.902715,-87.724356
4912 S Calumet Ave,60615,41.805526,-87.618049
6200 S Drexel Ave,60637,41.781893,-87.604352
6781 S Lowe Ave,60621,41.771064,-87.640255
1824 S Wood St,60608,41.856825,-87.671063
1824 S Wood St,60608,41.856825,-87.671063
1801 South Wood Street,60608,41.857666,-87.67108
within Harrison Park Fieldhouse,60608,41.87371,-87.70587
4458-70 S Oakenwald Ave,60653,41.813657,-87.595026
4458 S Oakenwald Ave,60653,41.813657,-87.595026
1050 W Albion Ave,60626,42.002586,-87.658473
1123 West Farwell Avenue,60626,42.006818,-87.658846
1050 W Pratt Ave,60626,42.005235,-87.680291
6855 S Oglesby Ave,60649,41.770513,-87.568259
2936 W 85th St,60652,41.738657,-87.696483
5949 W Huron St,60644,41.892846,-87.774136
2500 West Lunt Avenue,60645,42.008606,-87.692536
13000 S Torrence Ave,60633,41.659172,-87.559127
13200-13298 S Torrence Ave,60633,41.654401,-87.559294
1040 W Columbia Ave,60626,42.00464,-87.657934
1801 S Indiana Ave,60616,41.857935,-87.622279
610-30 W Adams St,60606,41.879314,-87.639145
5839 S Wood St,60636,41.787188,-87.669237
2240 N Kilbourn Ave,60639,41.922054,-87.73892
1355 E 53rd St,60615,41.799536,-87.592536
2045 N Lincoln Park West,60614,41.919658,-87.636379
8029 W Forest Preserve Ave,60634,41.943965,-87.827703
4834 N Winthrop Ave,60640,41.970156,-87.657627
7740 S Ingleside Ave,60619,41.753865,-87.60161
513 W 72nd St,60621,41.763495,-87.637669
4100 N Long Ave,60641,41.955113,-87.762131
7201 S Dobson Ave,60619,41.764114,-87.599436
7201 S Dobson Ave,60619,41.764114,-87.599436
7201 S Dobson,60619,41.764114,-87.599436
1607 E 73rd St,60649,41.762405,-87.585246
4046 S Ellis Ave,60653,41.820756,-87.60307
4052 S Ellis Ave,60653,41.820657,-87.603005
2045 N Lincoln Park West,60614,41.919658,-87.636379
3312 W Thorndale Ave,60659,41.988473,-87.71257
2200 N Oakley Ave,60647,41.922402,-87.685509
2200 N Oakley Ave,60647,41.922402,-87.685509
2140 S Homan Avenue,60623,41.85241,-87.710136
2140 S Homan Ave,60623,41.85241,-87.710136
3559 W Arthington St,60624,41.869979,-87.714642
3559 W Arthington,60624,41.879417,-87.722735
4635 S Champlain Ave,60653,41.810192,-87.610221
916 N Honore St,60622,41.898359,-87.673461
3035 W Van Buren St,60612,41.875921,-87.702833
1416-26 SHamlin Ave,60623,41.861957,-87.720161
1422 S Hamlin Ave,60623,41.861886,-87.720159
2741 W Montrose Ave,60618,41.961286,-87.697294
2741 W Montrose Ave,60618,41.961286,-87.697294
5861 N Kostner Ave,60646,41.987483,-87.738315
2741 W Montrose,60618,41.961286,-87.697294
600 N Lake Shore Dr,60611,41.89351,-87.614867
5001 S Cottage Grove Ave,60615,41.80412,-87.606447
7519 N Eastlake Terrace,60626,42.01886,-87.664441
7519 N Eastlake Terrace,60626,42.01886,-87.664441
1300 W Howard St,60626,42.019213,-87.663898
3417 S Hamiltion Ave,60608,41.831625,-87.678962
3417 South Hamilton Avenue,60608,41.831625,-87.678962
4942-58 W Hubbard St,60644,41.888659,-87.74966
4950 W Hubbard St,60644,41.88865,-87.750023
6200 S Kimbark Ave,60637,41.782202,-87.594684
2045 N Lincoln Park West,60614,41.919658,-87.636379
3050 South Lowe Ave,60616,41.838482,-87.642632
1440 N Humboldt Boulevard,60622,41.906454,-87.701389
1000 N Sacramento Ave,60622,41.899766,-87.701761
1400 N Humboldt Blvd,60622,41.906409,-87.701402
1440 N Humboldt Blvd,60622,41.906454,-87.701389
1400 N Sacramento Ave,60622,41.902765,-87.701791
1800 North Humboldt Boulevard,60647,41.914186,-87.70232
1359 N Humboldt Blvd,60622,41.905239,-87.701781
Louis Munoz Marin Drive at Division,60622,41.902762,-87.681818
958 N Sacramento Ave,60622,41.89955,-87.701753
1300 N California Ave,60622,41.904775,-87.696902
2925 W North Ave,60622,41.910128,-87.70004
2800 W Le Moyne Dr,60622,41.908399,-87.697087
3025 W Augusta Blvd,60622,41.89924,-87.702966
1230 N Kedzie Ave,60622,41.907774,-87.706942
1200 N Humboldt Blvd,60622,41.899565,-87.702515
"1400 N Humboldt Dr,",60622,41.906409,-87.701402
1350 N California Ave,60622,41.906103,-87.696931
1300 S Linn White Dr,60605,41.864688,-87.609026
1901 W 100th St,60643,41.712041,-87.670073
375 W Elm St,60610,41.902735,-87.639122
337 E Randolph St,60602,41.884284,-87.622394
9801 S Avenue G,60617,41.718303,-87.531025
1312 S Racine Ave,60608,41.864757,-87.65661
3945 N Springfield Ave,60618,41.952955,-87.725076
3945 N Springfield Ave,60618,41.952955,-87.725076
2500 W Lunt Ave,60645,42.008606,-87.692536
2500 W Estes Ave,60645,42.010396,-87.693805
2045 N Lincoln Park West,60614,41.919658,-87.636379
11740 S Torrence Ave,60617,41.681608,-87.559349
11600 S Torrence Ave,60617,41.684529,-87.559385
6010 W Matson Ave,60646,41.992755,-87.778266
6010 W Matson Ave,60646,41.992755,-87.778266
8930 S Muskegon Ave,60617,41.732921,-87.555452
10540 S Morgan St 0C,60643,41.70249,-87.64762
10540 S Morgan St,60643,41.702497,-87.647555
6401 S Stony Island Ave,60637,41.778764,-87.586422
8385 S Birkhoff Ave,60620,41.741809,-87.639371
4319 S Indiana Ave,60653,41.816094,-87.621376
6401 S Stony Island Ave,60637,41.778764,-87.586422
6379 South Lake Shore Drive,60649,41.782164,-87.575476
At 61st St between S Cornell Dr and South Shore Drive,60649,41.762202,-87.571522
Unnamed Road,60649,44.369922,-88.592101
6147 South Evans Avenue,60637,41.78256,-87.60721
6400 S Lake Shore Drive,60637,41.781963,-87.575509
6400 S Coast Guard Drive,60637,41.781032,-87.574891
Cornell Dr & Lake Shore Dr,60637,41.780991,-87.604053
1625 E 56th St,60637,41.793414,-87.585027
5625 S Stony Island Ave,60637,41.792915,-87.586645
6401 S Lake Shore Dr,60637,41.783931,-87.576564
6375 S Stony Island Ave,60637,41.77869,-87.586419
2000 E 67th St,60637,41.773315,-87.586627
1725 E 67th St,60637,41.773315,-87.586627
6200 S Stony Island Ave,60637,41.782182,-87.586509
4319 S Indiana Ave,60653,41.816094,-87.621376
6401 S Stony Island Ave,60637,41.778764,-87.586422
4674 NVirginia Ave,60625,41.971155,-87.701816
2731 South Eleanor Street,60608,41.844013,-87.66135
550 E Grand Ave,60611,41.891947,-87.612329
2045 N Lincoln Park West,60614,41.919658,-87.636379
3101 W Fulton St,60612,41.886451,-87.704003
4822 N Long Ave,60630,41.968522,-87.762383
1709 S Des Plaines St,60616,41.875872,-87.643922
4822 N Long Ave,60630,41.968522,-87.762383
1709 S Des Plaines St,60616,41.875872,-87.643922
1640 S Jefferson St,60616,41.858767,-87.641898
4650 N Lawndale Ave,60625,41.9657,-87.720608
8800 S Clyde Ave,60617,41.734405,-87.573238
410 W Chicago Ave,60610,41.896564,-87.641033
410-412 West Chicago Avenue,60610,41.896564,-87.641033
410 W Chicago Ave,60654,41.896584,-87.639313
2045 N Lincoln Park West,60614,41.919658,-87.636379
337 E Randolph St,60602,41.884284,-87.622394
1240 S Plymouth Ct,60616,41.866603,-87.628481
1023 W Wrightwood Ave,60614,41.929006,-87.654815
1001 W Wrightwood Ave,60614,41.929029,-87.653839
3225 S Racine Ave,60608,41.835449,-87.655942
2210 W Pershing Rd,60609,41.823114,-87.679668
1362 S Linn White Drive,60605,41.864107,-87.609226
1805 NAlbany Ave,60647,41.913836,-87.705141
1805 NAlbany Ave,60647,41.913836,-87.705141
345 W 64th St,60621,41.778109,-87.63382
7751 N Eastlake Terrace,60626,42.022165,-87.66563
"7751 N Eastlake Terrace,",60626,42.022165,-87.66563
3652 N Greenview Ave,60613,41.947995,-87.666456
1521 S Linn White Dr,60605,41.860664,-87.610261
4134 W Hirsch St,60651,41.906236,-87.730043
1243 S Keeler Ave,60651,41.865109,-87.730005
3201 W Chicago Ave,60624,41.895395,-87.726265
2725 W 41st St,60632,41.819371,-87.693257
3800 N Seminary Ave,60613,41.951557,-87.656794
4136 S California Ave,60632,41.81925,-87.694549
4438 W Wrightwood Ave,60639,41.928651,-87.738278
4438 W Wrightwood Ave,60639,41.928651,-87.738278
2715 North Kilbourn Avenue,60639,41.929981,-87.739183
2945 N Kenosha Ave,60641,41.934672,-87.733842
3141 N Kenmore Ave,60657,41.938797,-87.655278
11320 S Western Ave,60655,41.687783,-87.681098
11320 S WESTERN AVE,60643,41.687783,-87.681098
4434 S Lake Park Ave,60653,41.814477,-87.597067
4434 S Lake Park Ave,60653,41.814477,-87.597067
345 E 118th St,60628,41.679929,-87.61636
1330 E 50th St,60615,41.804202,-87.594208
1653 N Keystone Ave,60639,41.911369,-87.727606
1801 S Indiana Ave,60616,41.857935,-87.622279
3501 N Kilbourn Ave,60641,41.944504,-87.739651
1200 W 77th St,60620,41.754139,-87.653843
10609 S Western Ave,60643,41.700328,-87.681348
5200 W Kinzie Parkway,60644,41.887826,-87.755294
3315 W Carmen Ave,60625,41.973918,-87.712085
3538 N Lincoln Ave,60657,41.946556,-87.67347
3538 NLincoln Ave,60657,41.946556,-87.67347
4143 N Kolmar Ave,60641,41.956087,-87.741819
6156 N Claremont Ave,60659,41.993872,-87.688551
11320 S Western Ave,60643,41.687783,-87.681098
2732 N Avers Ave,60647,41.93101,-87.723287
2732 N Avers Ave,60647,41.93101,-87.723287
2732 North Avers Avenue,60647,41.93101,-87.723287
10556 S Avenue L,60617,41.702945,-87.536486
1635 W 33rd Place,60608,41.833244,-87.66694
4330 S Kedvale Ave,60632,41.814114,-87.727478
4324 S Kedvale Ave,60632,41.81436,-87.727491
2045 N Lincoln Park West,60614,41.919658,-87.636379
1333 N Laramie Ave,60651,41.9051,-87.755826
1333 N Laramie Ave,60651,41.9051,-87.755826
1380 N Laramie Ave,60651,41.905694,-87.75584
1320 N Lavergne Ave,60651,41.904843,-87.750942
5100 N Ridgeway Ave,60625,41.973843,-87.722074
2800 S Sacramento Ave,60608,41.840355,-87.699996
2800 S Sacramento Blvd,60608,41.866651,-87.700781
3117 S Rhodes Ave,60616,41.838568,-87.613496
3117 S Rhodes Ave,60616,41.838568,-87.613496
808 N Lake Shore Dr,60611,41.897388,-87.617422
450 E Benton Place,60601,41.885539,-87.61686
450 E Benton Pl,60601,41.885539,-87.61686
808 N Lake Shore,60653,41.897388,-87.617422
2845 N Lake Shore Drive,60614,41.933025,-87.636128
1400 W 109th St,60643,41.695814,-87.657065
5915 N Sheridan Rd,60660,41.990431,-87.655391
1754 W Albion Ave,60626,42.001676,-87.673631
11255 S Langley Ave,60628,41.690007,-87.605916
2045 N Lincoln Park West,60614,41.919658,-87.636379
5210 W 64th St,60638,41.775999,-87.751779
5210 W 64th St,60638,41.775999,-87.751779
1257 W Columbia Ave,60626,42.004512,-87.663101
6598 South Lake Shore Drive,60649,41.781963,-87.575509
N Simonds Dr,60640,41.968525,-87.64505
Lakefront Trail,60649,41.762202,-87.571522
5120 W 44th St,60638,41.812923,-87.751805
5120 West 44th Street,60638,41.812923,-87.751805
3700 W 87th St,60652,41.735053,-87.714326
3100 W Bryn Mawr Ave,60659,41.983079,-87.707413
3200 W Hollywood Ave,60659,41.985051,-87.708795
3000 W Catalpa Ave,60659,41.981285,-87.704453
3150 W Thorndale Ave,60659,41.988489,-87.711177
3050 W Hollywood Ave,60659,41.984804,-87.705703
Peterson and Jersey,60659,39.61987,-74.32133
7526 S Lowe Ave,60620,41.756711,-87.640567
664 W 76th St,60620,41.756142,-87.640774
1700 S Wentworth Ave,60616,41.858719,-87.6319
1222 W Touhy Ave,60626,42.01285,-87.662781
1222 W Touhy Ave,60626,42.01285,-87.662781
7000 N Sacramento Ave,60645,42.008714,-87.704511
7000 North Sacramento Avenue,60645,42.008714,-87.704511
7000 N Sacramento,60645,42.008927,-87.695049
722 East Pershing Road,60653,41.823902,-87.609215
5458 W Kinzie Pkwy,60644,41.887738,-87.762072
5458 W Kinzie Parkway,60644,41.887738,-87.762072
2022 W Cermak Rd,60608,41.852195,-87.676424
632 W 71st St,60621,41.765271,-87.640824
4501 N Clarendon Ave,60640,41.963681,-87.649962
2410 S Trumbull Ave,60623,41.847543,-87.71121
1200 South Lake Shore Drive,60614,41.868755,-87.617531
1735 S State St,60616,41.858618,-87.627163
500-5700 N Lake Shore Drive,60614,41.931338,-87.63691
2045 W Lincoln Park West,60614,41.919658,-87.636379
2045 NLincoln Park West,60614,41.919658,-87.636379
4400 N Lakeshore Drive,60640,41.9635,-87.64684
4400 North Lake Shore Drive,60640,41.9635,-87.64684
North Ave & Lake Shore Drive,60614,41.912875,-87.627173
Cannon Drive and Fullerton Parkway,60614,41.925766,-87.633613
Diversey Pkwy & Lakeshore drive,60614,41.933183,-87.636092
2 West Belmont Harbor Drive,60657,41.940567,-87.638183
West Wilson Drive,60640,41.96543,-87.657884
2045 N Lincoln Park West,60614,41.919658,-87.636379
5937 North Broadway,60660,41.990153,-87.660196
601 West Waveland Avenue,60613,41.950486,-87.644546
200 West Montrose Harbor Drive,60640,41.963245,-87.636241
900 W Montrose Harbor Dr,60640,41.960164,-87.639892
5937 North Broadway,60660,41.990153,-87.660196
Foster & Lakeshore drive,60614,45.41572,-96.66933
Lakefront Trail,60640,41.971888,-87.662232
1940 North Clark Street,60614,41.917393,-87.635428
Belmont Harbor,60614,41.94,-87.63742
2391 N Stockton Dr,60614,41.924288,-87.635772
2391 N Stockton Drive,60614,41.924288,-87.635772
2045 N Lincoln Park West,60610,41.919658,-87.636379
Oak Street & Lake Shore Drive,60614,41.900848,-87.624255
1650 N Stockton Drive,60614,41.914585,-87.632248
Briar & Lake Shore Drive West,60614,45.249328,-66.002187
3700 N Recreation Drive,60614,41.949943,-87.64335
2001 N Clark St,60614,41.918573,-87.636151
2045 N Lincoln Park,60614,41.919658,-87.636379
2045 N Lincoln Park West,60614,41.919658,-87.636379
221 W Diversey Dr,60614,41.933376,-87.634999
4500 N Lake Shore Drive,60614,41.933025,-87.636128
3920 N Recreation Dr,60614,41.953236,-87.644249
3300 N Lake Shore Dr,60614,41.933025,-87.636128
2120 N Stockton Dr,60614,41.920588,-87.635622
4850 N Simonds Dr,60614,41.970728,-87.646354
929 W Hollywood Ave,60614,41.98551,-87.655329
2650 N Cannon Dr,60614,41.931043,-87.637014
3100 N Lake Shore Dr,60614,41.933025,-87.636128
2045 NLincoln Park West,60614,41.919658,-87.636379
100 N Central Park Ave,60624,41.881566,-87.715877
4400 N Lakeshore Drive,60614,41.922605,-87.652064
4400 N Lake Shore Drive,60647,41.954627,-87.645219
2045 W Lincoln Park West,60614,41.919658,-87.636379
6054 S Damen Ave,60636,41.78333,-87.674019
6054 S Damen Ave,60636,41.78333,-87.674019
1129-47 N Pulaski Rd,60651,41.901685,-87.726271
2045 N Lincoln Park West,60614,41.919658,-87.636379
Luis Munoz Marin Drive,60651,41.901964,-87.741017
2251 W 50th Pl,60609,41.802072,-87.681284
2045 N Lincoln Park West,60614,41.919658,-87.636379
2162 W Polk St,60612,41.871409,-87.680368
2139 W Lexington St,60612,41.872342,-87.679616
N Western Ave and Logan Blvd,60647,41.92866,-87.687671
Balbo Ave & Michigan Ave,60601,41.873155,-87.624104
1654 S Trumbull Ave,60623,41.858015,-87.711499
5635 S Indiana Ave,60637,41.792314,-87.620775
263 McCormick Pl - Busway,60605,41.867824,-87.623449
5203 S Lowe Ave,60609,41.799183,-87.641603
2045 N Lincoln Park West,60614,41.919658,-87.636379
1230 W Greenleaf Ave,60626,42.010439,-87.661605
1230 W Greenleaf Ave (Greenleaf Ave @ Lake Michigan),60626,42.009469,-87.669834
1230 W Greenleaf,60626,42.010439,-87.661605
1200 W Morse Ave,60626,42.008009,-87.661684
4712 W Belmont Ave,60641,41.938883,-87.744326
10021 S Luella Ave,60617,41.712909,-87.56821
5558 S Green St,60621,41.792917,-87.646334
2239 W Lunt Ave,60645,42.008758,-87.68742
7700 S Wallace St,60620,41.754349,-87.639858
3203 W 28th St,60623,41.840871,-87.705222
4707 W Marquette Rd,60629,41.771126,-87.741928
337 E Randolph St,60602,41.884284,-87.622394
331 E Randolph St,60601,41.884365,-87.619106
800 S Columbus Dr,60601,41.872058,-87.620555
337 E Randolph St,60601,41.884351,-87.620142
337 E Randolph,60601,41.884351,-87.620142
3224 W Flournoy St,60624,41.872763,-87.706492
1331 W Monroe St,60607,41.880283,-87.659439
8407 S Kerfoot Ave,60620,41.741038,-87.640064
12000 South Emerald Avenue,60628,41.675859,-87.640884
5426 S Shields Ave,60609,41.795455,-87.634222
6404 S Ellis Ave,60637,41.778308,-87.600412
1521 S Linn White Dr,60605,41.860664,-87.610261
3231 S Dearborn St,60616,41.83583,-87.62788
3858 S Cottage Grove,60653,41.819261,-87.611244
900 E Pershing Rd,60653,41.824249,-87.604337
3035 E 130st St,60633,41.659162,-87.55078
3035 E 130st St,60633,41.659162,-87.55078
2047 N Spaulding Ave,60647,41.918696,-87.710295
1640 N Maplewood Ave,60647,41.911016,-87.690906
1230 W School Street,60657,41.941632,-87.660299
1735 S State St,60616,41.858618,-87.627163
3100 S Lake Shore Dr,60616,41.841399,-87.609193
3100 S Lake Shore Drive,60616,41.841399,-87.609193
4921 N Marine Drive,60640,41.962149,-87.646887
4921 N Marine Drive,60640,41.962149,-87.646887
2045 N Lincoln Park West,60614,41.919658,-87.636379
2200 E 103rd St,60633,41.708034,-87.568822
1031 N State St,60611,41.902146,-87.62838
1208 W Jarvis Ave,60626,42.01614,-87.663509
6743 S Kedzie Ave,60629,41.77132,-87.702908
6734 S Kedzie,60629,41.771379,-87.703048
6721-6757 South Kedzie Avenue,60629,41.771482,-87.702942
2756 West 63rd Street,60629,41.779135,-87.693224
6743 S Kedzie Ave,60629,41.77132,-87.702908
6734 S Kedzie Ave,60629,41.771379,-87.703048
6700 S Kedzie Avenue,60629,41.770744,-87.703039
3450 W Marquette Rd,60629,41.771559,-87.709768
2900 W 71st St,60629,41.764501,-87.695485
1637 W 87th St,60620,41.735707,-87.664391
922 W Fletcher St,60657,41.93897,-87.652656
1200 W 77th St,60620,41.754139,-87.653843
1200 West 77th Street,60620,41.754139,-87.653843
1200 W 77TH ST,60620,41.754139,-87.653843
6743 S Kedzie Ave,60629,41.77132,-87.702908
922 W Fletcher St,60657,41.93897,-87.652656
6239 N McClellan Ave,60646,41.995427,-87.770852
1754 W Albion Ave,60626,42.001676,-87.673631
4100 W West End Ave,60624,41.883341,-87.728527
6925 N Ridge Ave,60626,42.005063,-87.680111
5941 N Richmond St,60659,41.989201,-87.702998
5835 N Lincoln Ave,60659,41.987573,-87.70256
5941 N Richmond St,60659,41.989201,-87.702998
825 W Sheridan Rd,60613,41.952738,-87.650667
3945 N Springfield Ave,60618,41.952955,-87.725076
4550 W Sunnyside Ave,60630,41.962597,-87.7422
901 N Clark St,60610,41.899288,-87.631309
3843 N California Ave,60618,41.950942,-87.698134
3843 North California Avenue,60618,41.950942,-87.698134
10436 S Wallace St,60628,41.704167,-87.637884
2901 S Poplar Ave,60608,41.840916,-87.649304
4446 S Emerald Ave,60609,41.813412,-87.644438
3548 S Wallace St,60609,41.829885,-87.641215
10714 S Sawyer Ave,60655,41.698418,-87.702276
2210 W Pershing Rd,60609,41.823114,-87.679668
2210 West Pershing Road,60609,41.823114,-87.679668
2230 W Pershing Road,60609,41.823092,-87.681144
1834 West 35th Street,60609,41.830441,-87.671785
within McKinley Park Fieldhouse,60609,41.8302,-87.66264
2210 W Pershing Rd,60609,41.823114,-87.679668
2210 W Pershing Road,60609,41.823114,-87.679668
5553 N Ashland Ave,60640,41.982731,-87.669729
331 W 45th St,60609,41.812507,-87.634581
149 W 73rd St,60621,41.761723,-87.634585
2154 E 97th St,60617,41.71888,-87.57201
2154 E 97th St,60617,41.71888,-87.57201
6343 W Irving Park Rd,60634,41.952941,-87.785768
3736 N Marshfield Ave,60613,41.949943,-87.670111
4134 S State St,60609,41.819239,-87.626377
2045 North Lincoln Park West,60614,41.919658,-87.636379
7140 S Martin Luther King Dr,60619,41.764614,-87.615271
7140 S King Drive,60619,41.764614,-87.615271
7140 S Martin Luther King Dr,60619,41.764614,-87.615271
2754 STrumbull Ave,60623,41.840948,-87.711003
2754 S Trumbull Ave,60623,41.840948,-87.711003
5311 S Hamilton Ave,60614,41.796995,-87.678006
5311 S HAMILTON AVE,60609,41.796995,-87.678006
2045 N Lincoln Park West,60614,41.919658,-87.636379
401 W Belden Ave,60614,41.923779,-87.639368
1130 Midway Plaisance North,60637,41.780991,-87.604053
Midway Plaisance,60637,41.787252,-87.595314
1130 Midway Plaisance North C,60637,41.787215,-87.598059
1331 S Millard Ave,60623,41.863554,-87.71658
846 SMiller St,60607,41.870437,-87.652232
848 S Miller,60607,41.87041,-87.65229
1799 North Milwaukee Avenue,60647,41.914039,-87.683096
2741 W Montrose Ave,60618,41.961286,-87.697294
5940 S Central Ave,60638,41.784098,-87.761961
813 East 130th Place,60827,41.658597,-87.601322
6446 S Kimbark Ave,60637,41.777031,-87.594577
6446 S Kimbark Ave,60637,41.777031,-87.594577
6600 S Talman Ave,60629,41.773399,-87.689592
1810 N Monticello Ave,60647,41.913989,-87.717894
Bloomingdale Trail,60642,41.899935,-87.657821
4400 N Lake Shore Dr,60613,41.954627,-87.645219
Montrose & Lakeshore drive,60640,38.49058,-107.90198
Montrose & Lake Michigan,60640,41.971888,-87.662232
601 West Montrose Avenue,60613,41.963626,-87.638517
601 W Montrose Drive,60614,41.962778,-87.639751
6679 N Avondale Ave,60631,42.001528,-87.818172
6679 N Avondale Ave,60631,42.001528,-87.818172
5085 W Adams,60644,41.878517,-87.752765
5085 W Adams St,60644,41.878517,-87.752765
5727 S Racine Ave,60621,41.768565,-87.65422
11710 S Morgan St,60643,41.681182,-87.646896
11505 S Western Ave,60643,41.68385,-87.680846
11505 SWestern Ave,60643,41.68385,-87.680846
1200 W Morse Ave,60626,42.008009,-87.661684
2045 N Lincoln Park West,60614,41.919658,-87.636379
3721 W 111th St,60655,41.691373,-87.713538
2036 N Avers Ave,60647,41.918127,-87.722915
3721 W 111th St,60655,41.691373,-87.713538
3150 S Robinson St,60608,41.836638,-87.666572
5873 N Nina Ave,60631,41.98795,-87.803121
5865 N Nina Ave,60631,41.987823,-87.803313
3000 W Argyle St,60625,41.972114,-87.704549
2617 W 105th St,60655,41.70269,-87.687164
5801 N Pulaski Rd,60646,41.986333,-87.728537
1743 W 73rd St,60655,41.76124,-87.667966
220 E Chicago Ave,60611,41.896827,-87.621575
5700 S Lake Shore Dr,60637,41.792018,-87.580307
6101 N Neva Ave,60631,41.99265,-87.80564
7117 W Peterson Ave,60631,41.990011,-87.804168
1833 E 71st,60649,41.765192,-87.580897
361 E 85th St,60619,41.740144,-87.615445
361 E 85th St,60619,41.740144,-87.615445
1852 W 19th St,60608,41.855879,-87.672607
3015 W Division St,60622,41.902897,-87.702544
55 W 22nd,60616,41.85283,-87.629116
2210 West Pershing Road,60609,41.823114,-87.679668
2533 NSacramento Ave,60647,41.927651,-87.702378
2533 N Sacramento Ave,60647,41.927651,-87.702378
2045 N Lincoln Park West,60614,41.919658,-87.636379
2951 W Nelson St,60618,41.937293,-87.701771
1355 E 53rd St,60615,41.799536,-87.592536
1355 E 53rd st,60615,41.799536,-87.592536
1342 E 54th St,60615,41.798029,-87.593098
1355 E 53rd St,60615,41.799536,-87.592536
1300 E 55th St,60615,41.79518,-87.593371
5414 S Kenwood Ave,60615,41.796211,-87.59341
5483 S Kimbark Ave,60615,41.795279,-87.594924
1521 S Linn White Dr,60605,41.860664,-87.610261
1447 S Harding Ave,60623,41.861044,-87.723793
1447-1453 S Harding Ave,60623,41.861044,-87.723793
3232 W Congress Pkwy,60624,41.87482,-87.707012
2645 N Sheffield Ave,60614,41.930528,-87.653769
100 N Central Park Ave,60624,41.881566,-87.715877
6660 W 52nd St,60638,41.797751,-87.788917
6660 W 52nd St,60638,41.797751,-87.788917
North Ave & Lake Michigan,60613,41.953742,-87.661343
1601 N Lake Shore Drive,60611,41.903868,-87.624958
1600 N Lake Shore Drive,60613,41.912923,-87.624941
7211 N Kedzie Ave,60645,42.013624,-87.708982
6404 N Kedzie,60645,41.997395,-87.709352
4533 W Carmen Ave,60630,41.973542,-87.742492
5801 N Pulaski Rd,60646,41.986333,-87.728537
5801 N Pulaski Rd,60646,41.986333,-87.728537
Columbus Dr & Congress Pkwy,60601,41.875893,-87.620624
1040 W North Shore Av,60626,42.00379,-87.65795
1040 W North Shore Ave,60626,42.003745,-87.657952
1200 S Linn White Dr,60605,41.864502,-87.609197
1400 S Linn White Dr,60605,41.863699,-87.609215
1559 South Lake Shore Drive,60605,41.86167,-87.618382
1521 S Linn White Dr,60605,41.860664,-87.610261
5801 N Natoma Ave,60631,41.98646,-87.794131
7117 W Peterson Ave,60631,41.990011,-87.804168
6101 N Neva Ave,60631,41.99265,-87.80564
5801 N Natoma Ave,60631,41.98646,-87.794131
5899 N Avondale,60631,41.988877,-87.794646
7101 W 63rd St,60638,41.777327,-87.798654
8335 S Honore St,60620,41.742791,-87.669235
8335 S Honore St,60620,41.742791,-87.669235
Kelly Park Path,60613,41.953742,-87.661343
1000 North Lake Shore Drive,60611,41.90094,-87.624253
Oak St & Lake Michigan,60611,41.894734,-87.620291
965 W 95th St,60643,41.721324,-87.648147
6441 S Oakley Ave,60636,41.776139,-87.681007
4100 South Lake Shore Drive,60653,41.80685,-87.586141
6500 S Racine Ave,60636,41.775054,-87.654397
429 N Columbus Dr,60611,41.889873,-87.620234
6600 S Racine Ave,60636,41.774169,-87.654365
1300 W 64th St,60636,41.77776,-87.657068
6500 S Racine Ave,60636,41.775054,-87.654397
601 N Harding Ave,60624,41.892004,-87.72475
4712 W Ohio St,60644,41.891413,-87.744016
Ohio St & Lake Michigan,60611,41.894734,-87.620291
600 North Lake Shore Drive,60611,41.89351,-87.614867
2045 N Lincoln Park West,60614,41.919658,-87.636379
6566 N Avondale Ave,60631,41.999676,-87.814855
6566 N Avondale Ave,60631,41.999676,-87.814855
5430 N Olcott Ave,60656,41.977688,-87.814434
5430 N OLCOTT AVE,60656,41.977688,-87.814434
5430 N Oriole Ave,60656,41.978831,-87.816888
543 N Olcott Ave,60656,41.974533,-87.814474
744 N Pulaski Rd,60624,41.894854,-87.726062
744 N Pulaski Rd,60624,41.894854,-87.726062
4600 North Lake Shore Drive,60640,41.954627,-87.645219
5800 North and Lake Michigan,60660,41.991062,-87.666362
337 East Randolph Street,60601,41.884351,-87.620142
8800 S Clyde,60617,41.734405,-87.573238
8800 S Clyde Ave,60617,41.734405,-87.573238
8800 South Clyde Avenue,60617,41.734405,-87.573238
513 West 72nd Street,60621,41.763495,-87.637669
2021 N Burling St,60614,41.919044,-87.647303
4856 S Laflin St,60609,41.805087,-87.66242
2200 N Kedzie Ave,60647,41.920616,-87.707059
201 E 111th St,60628,41.692674,-87.616431
201 E 111th,60628,41.692674,-87.616431
201 E 111th St,60628,41.692674,-87.616431
3200 W Palmer Blvd,60647,41.921474,-87.706906
2700 S Halsted St,60608,41.844392,-87.646433
2850 S Halsted St,60608,41.842607,-87.646389
6100 West Fullerton Avenue,60639,41.923834,-87.77826
Stockton and Dickens,60614,41.92019,-87.63557
337 E Randolph St,60602,41.884284,-87.622394
6426 N Kedzie Ave,60645,41.997585,-87.709358
Park 540,60616,39.49163,-75.02338
6430 SKenwood Ave,60637,41.777593,-87.593012
8116 S Halsted St,60620,41.746641,-87.643941
1420 N Artesian Ave,60622,41.907151,-87.688353
4302 W Division St,60651,41.902574,-87.733722
8001 S Wabash Ave,60619,41.749015,-87.622947
5300 S Halsted St,60609,41.797629,-87.645233
3232 W Congress Pkwy,60624,41.87482,-87.707012
3349 W Rice St,60651,41.896443,-87.710805
5653 S Loomis St,60636,41.794213,-87.659716
4556 W 56th St,60629,41.791261,-87.736997
3231 S Dearborn St,60616,41.83583,-87.62788
2420 W Adams St,60612,41.878584,-87.68728
730 S Springfield Ave,60624,41.871724,-87.722922
1800 N Ashland,60622,41.914496,-87.667832
1420 N Monticello Ave,60651,41.906922,-87.717878
3517 W Arthington St,60624,41.870005,-87.713328
5914 N Sheridan Rd,60660,41.989591,-87.655368
1944 S St Louis Ave,60623,41.853754,-87.712372
141 W 62nd St,60621,41.781691,-87.629338
6336 S Kilbourn Ave,60629,41.77753,-87.734937
2155 W Wabansia Ave,60647,41.912676,-87.68187
1300 S St Louis,60623,41.864126,-87.712927
800 W Wisconsin,60614,38.617101,-88.951354
800 W Wisconsin St,60614,41.916027,-87.648834
1401 N Noble Street,60622,41.907062,-87.662707
6426 N Kedzie Ave,60645,41.997585,-87.709358
6619 North Western Avenue,60612,41.895584,-87.686815
24th and Federal,60611,41.894734,-87.620291
2401 S Federal st,60616,41.849108,-87.62924
2401 S Federal St,60616,41.849108,-87.62924
450 E Benton Place,60611,41.885539,-87.61686
450 E Benton Pl,60601,41.885539,-87.61686
12000 South Emerald Avenue,60628,41.675859,-87.640884
353 N DesPlaines St,60611,41.888339,-87.644327
2529 WLogan Blvd,60647,41.92824,-87.691282
2529 W Logan Blvd,60647,41.92824,-87.691282
6151 NSheridan Road,60660,41.993755,-87.655494
7901 S Farragut Dr,60649,41.755361,-87.546155
1801 N Milwaukee Ave,60647,41.914096,-87.683182
1358 W Monroe St,60607,41.880258,-87.661675
1358 W Monroe,60607,41.880258,-87.661675
2828 S Eleanor St,60608,41.843103,-87.662955
2828 S Eleanor Street,60608,41.843103,-87.662955
2828 South Eleanor Street,60608,41.843103,-87.662955
2540 W Jackson Blvd,60612,41.877529,-87.690647
2540 W Jackson Blvd,60612,41.877529,-87.690647
2540 W Jackson Bouldevard,60612,41.88004,-87.687011
2554 W Jackson Blvd,60612,41.877524,-87.69106
1919 W Maypole Ave,60607,41.884137,-87.674818
1801 N Ridgeway Ave,60647,41.914358,-87.720345
4139 N Oak Park Ave,60634,41.953324,-87.796279
11625 S Oakley Ave,60643,41.680893,-87.679036
3938-40 S Indiana Ave,60653,41.822661,-87.621561
3900 South Lake Park Avenue,60653,41.825001,-87.603882
4149-53 S Vincennes Ave,60653,41.818796,-87.6137
4149 -53 S Vincennes Avenue,60653,41.818796,-87.6137
4546 N KEDVALE AVE,60630,41.963811,-87.731561
1514 N Larrabee,60610,41.909654,-87.643378
6336 S Kilbourn Ave,60629,41.77753,-87.734937
745 W Wrightwood Ave,60614,41.929109,-87.648249
745 W Wrightwood Ave,60614,41.929109,-87.648249
3823 W School St,60618,41.940974,-87.723231
4712 W Belmont Ave,60641,41.938883,-87.744326
5100 N Ridgeway Ave,60625,41.973843,-87.722074
1932 W Lunt Ave,60626,42.008928,-87.679353
5825 S Kostner Ave,60629,41.787017,-87.732792
5825 S Kostner Ave,60629,41.787017,-87.732792
2045 N Lincoln Park West,60614,41.919658,-87.636379
1809 W 50th St,60609,41.803113,-87.670689
300 E 31st St,60616,41.838421,-87.618745
2430 N Cannon Dr,60614,41.926984,-87.634285
4345 S Calumet Ave,60653,41.815818,-87.618305
4347 S Calumet Ave,60653,41.815193,-87.61829
500 S Central Ave,60644,41.873961,-87.764595
30 W 66th St,60621,41.774573,-87.628084
30 W 66TH ST,60621,41.774573,-87.628084
5801 N Pulaski Rd,60646,41.986333,-87.728537
5801 N Pulaski Rd,60646,41.986333,-87.728537
5641 S Kenwood Ave,60637,41.792818,-87.593229
6601 N Western Ave,60645,42.001363,-87.689946
7345 N Washtenaw Ave,60645,42.014889,-87.697319
1119 W Cullerton St,60608,41.855228,-87.65395
3520 S Cottage Grove Ave,60653,41.830713,-87.610379
1312 S Racine Ave,60608,41.864757,-87.65661
4542 S Greenwood Ave,60653,41.812117,-87.599326
4434 S Lake Park Ave,60653,41.814477,-87.597067
808 N Lake Shore Dr,60611,41.897388,-87.617422
4921 N Marine Drive,60640,41.962149,-87.646887
1501 W Randolph St,60607,41.884747,-87.66427
9650 S Avenue M,60617,41.719859,-87.537695
9650 S Avenue,60617,41.719807,-87.538895
9501 S Oglesby Ave,60617,41.721959,-87.565893
1700 S Wentworth Avenue,60616,41.858719,-87.6319
200-322 West 18th Street,60616,41.857752,-87.631898
300 W 19th Street,60616,41.8566,-87.633039
1700 S Wentworth Ave,60616,41.858719,-87.6319
300 w 18th street,60616,41.857721,-87.63706
239 West 18th Street,60616,41.857637,-87.63359
300 W 19th St,60616,41.8566,-87.633039
1906 South Tom Parkway,60616,41.856175,-87.634229
4247 W 31st St,60623,41.836817,-87.730787
4247 W 31st St,60623,41.836817,-87.730787
4247 W 31st,60623,41.836817,-87.730787
6801 WImlay St,60631,41.998816,-87.79717
6801 W Imlay St,60631,41.998816,-87.79717
6566 N Avondale Ave Chicago,60631,41.999676,-87.814855
2045 N Lincoln Park West,60614,41.919658,-87.636379
4044 S Prairie Ave,60653,41.821371,-87.619912
4100 N Long Ave,60641,41.955113,-87.762131
4100 N Long,60641,41.955113,-87.762131
7340 N Rogers Ave,60626,42.014829,-87.677848
7340 N Rogers Ave,60626,42.014829,-87.677848
5100 N Francisco Ave,60625,41.973861,-87.701292
6310 S Drexel Ave,60637,41.78021,-87.602893
632 S Dearborn St,60605,41.873759,-87.629185
632-708 S Dearborn,60605,41.873759,-87.629185
1050 W Pratt Ave,60626,42.005235,-87.680291
310 SState St,60604,41.877744,-87.627732
1844 N Sheffield Ave,60614,41.91506,-87.653255
6401 S Stony Island Ave,60637,41.778764,-87.586422
5491 S Lake Shore Dr,60615,41.802587,-87.583758
1419 W Blackhawk St,60642,41.907049,-87.663404
10940 S Prospect Ave,60643,41.694719,-87.66801
1419 West Blackhawk Street,60622,41.907021,-87.667726
11101 S Cottage Grove Ave,60628,41.692771,-87.60985
4900 N Marine Drive,60640,41.971586,-87.650445
2045 N Lincoln Park West,60614,41.919658,-87.636379
6239 N McClellan Ave,60646,41.995427,-87.770852
7334 S Maryland Ave,60619,41.761566,-87.604232
2873 E 75th Street (75th St @ Lake Michigan),60649,41.762202,-87.571522
3111 E 77th St,60649,41.758192,-87.55023
2873 E 75th St,60649,41.76134,-87.555588
3111 East 77th St,60649,41.758192,-87.55023
7900 South South Shore Drive,60617,41.751694,-87.548057
4350 W 79th St,60652,41.749427,-87.730387
4350 W 79th St,60652,41.749427,-87.730387
4604 N Manor Ave,60625,41.965273,-87.700092
1300 W 79th St,60620,41.75047,-87.655352
4101 S Lake Park Avenue,60653,41.820116,-87.600877
1700 S Wentworth Avenue,60616,41.858719,-87.6319
2509 W Irving Park Rd,60618,41.95398,-87.691084
2509 W Irving Park Rd,60618,41.95398,-87.691084
821 W 19th St,60608,41.856732,-87.647265
821 West 19th Street,60608,41.856732,-87.647265
2045 N Lincoln Park West,60614,41.919658,-87.636379
1817 W 96th Street,60643,41.719328,-87.668116
1817 W 96th St,60643,41.719328,-87.668116
1817 W 96th St,60643,41.719328,-87.668116
9625 S Longwood Dr,60643,41.718868,-87.669072
1817 W 96th Street,60643,41.719328,-87.668116
9512 S Wood St,60643,41.72087,-87.667435
4247 West 31st Street,60623,41.836817,-87.730787
6100 W Fullerton Ave,60639,41.923834,-87.77826
6100 W Fullerton,60639,41.923834,-87.77826
6100 W Fullerton,60639,41.923834,-87.77826
6100 W Fullerton Ave,60639,41.923834,-87.77826
2045 N Lincoln Park West,60614,41.919658,-87.636379
5100 N Francisco Ave,60625,41.973861,-87.701292
401 E River Dr,60611,41.889027,-87.617635
5075 N Francisco Ave,60625,41.973812,-87.701291
Junior Fieldhouse,60625,39.390897,-99.066067
5100 N Francisco Ave,60625,41.973861,-87.701292
2500 W Lunt Ave,60645,42.008606,-87.692536
401 E River Dr,60611,41.889027,-87.617635
2045 W Pratt Blvd,60645,42.005211,-87.681766
100 N Central Park Ave,60624,41.881566,-87.715877
2045 N Lincoln Park West,60614,41.919658,-87.636379
5230 W Argyle St,60630,41.971571,-87.759036
5200 W Argyle St,60630,41.971576,-87.757768
9247 S Eggleston Ave,60620,41.72567,-87.634854
9247 S Eggleston Ave,60620,41.72567,-87.634854
10540 S Morgan St,60643,41.702497,-87.647555
7705 N Eastlake Terrace,60626,42.021017,-87.665159
7345 N Washtenaw Ave,60645,42.014889,-87.697319
3000 W Argyle,60625,41.972114,-87.704549
3000 W Argyle St,60625,41.972114,-87.704549
3000 W Argyle St Chicago,60625,41.972114,-87.704549
62 W Roosevelt Rd,60605,41.867444,-87.629875
4901 N Sheridan Rd,60640,41.971524,-87.654897
W Roscoe St & N Lake Shore Drive,60618,41.9434,-87.640505
2045 N Lincoln Park West,60614,41.919658,-87.636379
6312 W Rosedale Ave,60646,41.989007,-87.781115
7547 S Euclid Ave,60649,41.75613,-87.577294
7547 S EUCLID AVE,60649,41.75613,-87.577294
11546 S Avenue L,60617,41.685167,-87.53645
2045 Lincoln Park West,60614,36.266433,-86.744265
1552 W Schreiber Ave,60626,41.998905,-87.669743
3801 W 45th St,60632,41.811685,-87.712409
3045 E 83rd St,60617,41.744677,-87.549838
3045 E 83rd St,60617,41.744677,-87.549838
6871 W Belden Ave,60707,41.921134,-87.798468
6871 West Belden Avenue,60707,41.921134,-87.798468
3520 N Sacramento Ave,60618,41.946102,-87.702889
3520 N Sacramento Ave,60618,41.946102,-87.702889
2453 W Monroe St,60612,41.880276,-87.687235
4222 W Foster Ave,60630,41.975421,-87.73445
5861 N Kostner Ave,60646,41.987483,-87.738315
4400 WDevon Ave,60646,41.997309,-87.753277
4400 W Devon Ave,60646,41.997309,-87.753277
2021 N Burling St,60614,41.919044,-87.647303
2415 N Marshfield Ave,60614,41.925929,-87.669387
8900 S Green Bay Ave,60617,41.733733,-87.541587
1552 W Schreiber Ave,60626,41.998905,-87.669743
4637 W 83rd St,60652,41.74203,-87.736251
3299 West Devon Avenue,60712,41.997255,-87.739196
808 N Lake Shore Dr,60611,41.897388,-87.617422
Lakefront Trail,60616,41.844869,-87.629531
2045 N Lincoln Park West,60614,41.919658,-87.636379
220 E Chicago Ave,60611,41.896827,-87.621575
2228 N Oakley Ave,60647,41.922882,-87.68512
2228 N Oakley Ave Chicago,60647,41.922882,-87.68512
5656 S St Louis Ave,60629,41.790475,-87.710771
3500 W Norman Bobbins Pl,60629,41.777061,-87.711565
5887 N Ridge Ave,60660,41.988713,-87.668464
1519 W Thorndale Ave,60660,41.989943,-87.667961
Thorndale and Greenview,60660,41.98994,-87.66755
Elmdale and Greenview,60660,41.99081,-87.66762
375 W Elm St,60610,41.902735,-87.639122
6935 W Addison St,60634,41.945407,-87.800259
6935 W Addison St,60634,41.945407,-87.800259
3015 West Division Street,60622,41.902897,-87.702544
3660 W 23rd St,60623,41.849847,-87.716566
1200 S Lake Shore D,60605,41.868755,-87.617531
3660 W 23rd St,60623,41.849847,-87.716566
3505 N Southport Ave,60657,41.945404,-87.663972
2650 W Peterson Ave,60659,41.990486,-87.696173
910 S Aberdeen St,60607,41.870411,-87.654251
1301 W 52nd St,60609,41.799637,-87.657436
5158 S Ada St,60609,41.799925,-87.658665
1159 W 54th St,60609,41.796013,-87.653564
5444 S Loomis Blvd,60609,41.794347,-87.659722
6201 S Stewart Ave,60621,41.782048,-87.635103
5701 S Shields Ave,60621,41.790681,-87.634054
2045 N Lincoln Park West,60614,41.919658,-87.636379
1521 S Linn White Dr,60605,41.860664,-87.610261
2430 W Logan Blvd,60647,41.928396,-87.689574
1640 N Drake Ave,60647,41.911382,-87.714974
1640 N Drake Ave,60647,41.911382,-87.714974
2835 S Wallace St,60616,41.842588,-87.641524
337 E Randolph St,60602,41.884284,-87.622394
1331 W Adams St,60606,41.879314,-87.639145
6401 S Stony Island Ave,60637,41.778764,-87.586422
2526 W Grand Ave,60612,41.891721,-87.690109
9912 S Princeton Ave,60628,41.7139,-87.630859
9912 S Princeton Ave,60628,41.7139,-87.630859
2526 W Grand Ave,60612,41.891721,-87.690109
534 N Albany Ave,60612,41.890886,-87.70396
1851 W Huron St,60622,41.89414,-87.674041
1410 S Museum Campus Dr,60605,41.863437,-87.614765
1410 S Museum Campus,60605,41.863437,-87.614765
901 W Oakdale Ave,60657,41.935392,-87.65256
6514 North Olympia Avenue,60631,41.999124,-87.81681
North Ave,60614,41.922605,-87.652064
1300 W Wolfram St,60657,41.93343,-87.661691
Columbus Dr & Congress Pkwy,60601,41.875893,-87.620624
7059 S South Shore Dr,60649,41.766242,-87.562783
7049 S South Shore Dr,60649,41.767204,-87.566512
7059 S South Shore Dr,60649,41.766242,-87.562783
E 87th St,60617,41.737337,-87.554004
4706 North Pulaski Road,60630,41.966819,-87.727969
4706 N Pulaski Rd,60630,41.966819,-87.727969
2045 N Lincoln Park West,60614,41.919658,-87.636379
1521 S Linn White Dr,60605,41.860664,-87.610261
1401 South Sacramento Drive,60623,41.862686,-87.701891
5337 S Blackstone Ave,60615,41.798762,-87.590401
339 N St Louis Ave,60624,41.887501,-87.713629
St Louis and Bloomingdale,60614,41.91358,-87.71343
347 N St Louis Ave,60624,41.887565,-87.713632
6404 N Kedzie Ave,60645,41.997395,-87.709352
618 W Scott St,60610,41.905037,-87.643867
2306 W Maypole Ave,60612,41.883892,-87.685385
5100 S Nordica Ave,60638,41.798699,-87.797896
3658 S State St,60609,41.827269,-87.626507
6401 S Stony Island Ave,60637,41.778764,-87.586422
2700 S Halsted St,60608,41.844392,-87.646433
2045 N Lincoln Park West,60614,41.919658,-87.636379
87th at S Lake Shore Drive,60617,41.731332,-87.54026
87th at S Lake Shore Dr,60617,41.731332,-87.54026
3150 West Peterson Avenue,60659,41.99043,-87.70855
3150 W Peterson Ave,60659,41.99043,-87.70855
1700 S Wentworth Avenue,60616,41.858719,-87.6319
5446 S Greenwood Ave,60615,41.796564,-87.599675
5432 S Greenwood Ave,60615,41.796985,-87.599679
5422 S Greenwood Ave,60615,41.797286,-87.599686
4347 W 54th St,60632,41.794989,-87.732391
4347 W 54th St,60632,41.794989,-87.732391
4347 W 54TH ST Chicago,60632,41.794989,-87.732391
6631 N Bosworth Ave,60626,42.002795,-87.669303
4201 S Champlain Ave,60653,41.818327,-87.610444
2200 N Oakley Ave,60647,41.922402,-87.685509
3111 East 77th Street,60649,41.758192,-87.55023
7262 W Summerdale Ave,60656,41.977515,-87.808883
4320 W 5th Ave,60624,41.870728,-87.733605
251 W 24th Pl,60616,41.848267,-87.633707
2045 N Lincoln Park West,60614,41.919658,-87.636379
4500 N Virginia Ave,60625,41.96332,-87.69479
5610 W Lake St,60644,41.887286,-87.765528
2522 N Racine Ave,60614,41.928702,-87.658568
2528 N Racine Ave,60614,41.928111,-87.658536
2101 W Superior St,60612,41.894941,-87.679491
650 W Leamington Ave,60644,41.892867,-87.75429
5109 S Greenwood Ave,60615,41.802127,-87.599812
2045 N Lincoln Park West,60614,41.919658,-87.636379
6205 North Sheridan Road,60660,36.826033,-119.612145
3344 S 71st St,60629,41.764325,-87.706792
3344 W 71st St,60629,41.764325,-87.706792
3344 West 71st St,60629,41.764325,-87.706792
39 W 47th St,60609,41.809187,-87.627869
39 W 47th St,60609,41.809187,-87.627869
704 W 42nd St,60609,41.817588,-87.643286
2700 S Halsted St,60608,41.844392,-87.646433
East 87th St at Lake Michigan,60617,41.737337,-87.554004
1521 S Linn White Dr,60605,41.860664,-87.610261
2153 North Humboldt Boulevard,60647,41.921135,-87.70166
2045 N Lincoln Park West,60614,41.919658,-87.636379
657 E 114th St,60628,41.687407,-87.606121
1400 S Lake Shore Dr,60605,41.865091,-87.619006
2391 N Stockton Dr,60614,41.924288,-87.635772
8421 S Morgan St,60620,41.741067,-87.648634
3186 West Palmer Square,60647,41.921474,-87.707024
2401 N Lake Shore Dr,60614,41.926214,-87.630541
4100 N Long Ave,60641,41.955113,-87.762131
55 W Cermak Rd,60616,41.85283,-87.629116
55 W 22nd,60616,41.85283,-87.629116
375 W Elm St,60610,41.902735,-87.639122
7348 N Paulina St,60626,42.015271,-87.672444
5887 N Ridge Ave,60660,41.988713,-87.668464
2401 N Lake Shore Drive,60614,41.926214,-87.630541
6871 W Belden Ave,60707,41.921134,-87.798468
1130 Midway Plaisance North,60637,41.780991,-87.604053
4100 N Long Ave,60641,41.955113,-87.762131
1811 S Throop St,60608,41.857135,-87.658859
4759 N Lavergne Ave,60630,41.967623,-87.752627
230 N Kolmar,60624,41.88383,-87.739177
305 N Kostner Ave,60624,41.885906,-87.735629
305 NKostner Ave,60624,41.885906,-87.735629
2021 N Burling St,60614,41.919044,-87.647303
1045 W Pratt,60626,42.005589,-87.65864
1700 S Wentworth Ave,60616,41.858719,-87.6319
7348 N Paulina St,60626,42.015271,-87.672444
2106 W Adams St,60612,41.878699,-87.679378
1419 W Blackhawk St,60642,41.907049,-87.663404
2250 N Clifton Ave,60614,41.923191,-87.657158
1750 W Juneway Terrace,60626,42.022541,-87.673578
1750 W Juneway Ter,60626,42.022541,-87.673578
East 87th at Lake Michigan,60617,44.3069,-84.63921
2400 E 105th St,60617,41.704587,-87.564479
2400 E 105th St,60617,41.704587,-87.564479
5100 N Ridgeway Ave,60625,41.973843,-87.722074
501 E 90th Pl,60619,41.730111,-87.60948
1801-11 N Milwaukee Ave Chicago,60647,41.914096,-87.683182
1249 N Astor St,60610,41.905377,-87.627208
301 S Columbus Dr,60605,41.87586,-87.620623
2045 N Lincoln Park West,60614,41.919658,-87.636379
1501 W Randolph St,60606,41.884438,-87.639333
1501 W Randolph St,60607,41.884747,-87.66427
1119 W Cullerton St,60608,41.855228,-87.65395
2636 N Kimball Ave,60647,41.929239,-87.712198
2636 N Kimball,60647,41.929239,-87.712198
900 W Wilson Ave,60640,41.965499,-87.65239
7001 W 59th St,60638,41.784735,-87.797036
2045 N Lincoln Park West,60614,41.919658,-87.636379
3200 W Palmer Blvd,60647,41.921474,-87.706906
2820 E 98th St,60617,41.7173,-87.55583
2820 E 98th St,60617,41.7173,-87.55583
4120 W Taylor St,60624,41.869059,-87.728248
5010 W 50th St,60638,41.802024,-87.748205
2100 W Lawrence Ave,60625,41.96876,-87.681611
948 W 51st,60609,41.800616,-87.649559
948 W 51st,60609,41.800616,-87.649559
5801 N Pulaski Rd,60646,41.986333,-87.728537
607 W 92nd St,60620,41.726994,-87.639096
1722 N Ashland Ave,60614,41.918038,-87.668025
1719 W Wolfram St,60657,41.933247,-87.672892
630 N Kingsbury St,60606,41.88884,-87.638689
1446 W Warner Ave,60613,41.957071,-87.666183
6601 N Western Ave,60645,42.001363,-87.689946
6601 North Western Avenue,60645,42.001363,-87.689946
6601 N Western Ave,60645,42.001363,-87.689946
2350 W Pratt Blvd,60645,42.005032,-87.689514
2050 W Pratt Blvd,60645,42.005208,-87.68198
6650 N Claremont Ave,60645,41.999671,-87.688727
8213 S Euclid Ave,60617,41.745648,-87.577096
5531 S Martin Luther King Dr,60637,41.792123,-87.615874
5531 S King Dr,60615,41.795162,-87.615988
5200 S Hyde Park Blvd,60615,41.80101,-87.584541
7710 N Paulina St,60626,42.021333,-87.673076
5200 S Hyde Park Blvd,60615,41.80101,-87.584541
4147 W 58th St,60637,41.787712,-87.727165
5531 S King Dr,60637,41.79353,-87.61592
5531 S Martin Luther King Dr,60637,41.792123,-87.615874
740 E 65th Pl,60637,41.776039,-87.589892
5200 South Ellsworth Drive,60615,41.801993,-87.602725
5531 S Martin Luther King Dr,60637,41.792123,-87.615874
5531 S King Dr,60637,41.79353,-87.61592
5531 S Russell Drive,60637,41.793243,-87.613279
5450 S Cottage Grove Ave,60637,41.794836,-87.606238
5250 S Dr Martin Luther King Jr Dr,60637,41.794236,-87.615942
550 E 60th St,60637,41.785748,-87.612122
5650 S Dr Martin Luther King Jr Dr,60637,41.791401,-87.615846
901 N Clark St,60610,41.899288,-87.631309
2521 South Washtenaw Ave,60608,41.845852,-87.692811
2521 South Washtenaw Ave,60608,41.845852,-87.692811
2521 S Washtenaw Ave,60608,41.845852,-87.692811
1200 W 77th St,60620,41.754139,-87.653843
1357 S Indiana Ave,60605,41.864392,-87.622376
901 W Oakdale Ave,60657,41.935392,-87.65256
2333 W Sunnyside Ave,60625,41.963199,-87.686423
2333 W Sunnyside Ave,60625,41.963199,-87.686423
667 W Roscoe St,60657,41.943652,-87.647142
3770 S Wentworth Ave,60609,41.825549,-87.631339
5625 S Mobile Ave,60638,41.790224,-87.779233
6325 W 56th St,60638,41.790552,-87.779427
3770 S Wentworth Ave,60609,41.825549,-87.631339
5625 S Mobile Ave,60638,41.790224,-87.779233
13401-11 S Avenue M,60633,41.651843,-87.537457
13401 South Ave M,60633,41.65168,-87.53953
8223 S Princeton Ave,60620,41.744498,-87.631676
8223 S PRINCETON AVE,60620,41.744498,-87.631676
8223 S Princeton Ave,60620,41.744498,-87.631676
4233 W 65th St,60629,41.774943,-87.728278
4233 W 65TH ST,60629,41.774943,-87.728278
401 W 123rd St,60628,41.670629,-87.6324
400 W 123rd St,60628,41.670612,-87.633784
401 W 123rd St,60628,41.670629,-87.6324
5601 N Western Ave,60659,41.983172,-87.689389
5801 N Western Ave,60659,41.987084,-87.689528
5821 North Western Avenue,60659,41.986857,-87.689521
907 N Western Ave,60622,41.89782,-87.686877
"907 N Western Ave,",60622,41.89782,-87.686877
10609 S Western Ave,60643,41.700328,-87.681348
North Central Park Avenue,60624,41.887733,-87.716276
1120 W 122nd Street,60643,41.672243,-87.650157
1120 W 122nd Street,60643,41.672243,-87.650157
1120 W 122nd St,60643,41.672243,-87.650157
410 W Chicago Ave,60654,41.896584,-87.639313
1610 W Howard,60626,42.019399,-87.671582
2100 E 134th St,60633,41.651876,-87.572314
211 S Loomis St,60607,41.878866,-87.661908
1425 N Damen Avenue,60622,41.907977,-87.677399
1425 N Damen Ave,60622,41.907977,-87.677399
1425 N Damen Ave,60622,41.907977,-87.677399
1425 N Damen Avenue,60622,41.907977,-87.677399
1747 W Nelson St,60657,41.936903,-87.672903
6950 N Hiawatha Ave,60646,42.007401,-87.778162
2045 N Lincoln Park West,60614,41.919658,-87.636379
2210 W Pershing Rd,60609,41.823114,-87.679668
2850 S State St,60616,41.842347,-87.626888
2820 S State St,60616,41.842912,-87.6269
4101 S Lake Park Ave,60653,41.820116,-87.600877
4101 S Lake Park Avenue,60653,41.820116,-87.600877
4630 N Milwaukee Ave,60630,41.964711,-87.757983
1122 W 34th Pl C,60608,41.831557,-87.654498
1122 W 34th Pl,60608,41.831557,-87.654498
1122 W 34th Pl C,60608,41.831557,-87.654498
3225 S Racine Avenue,60608,41.835449,-87.655942
3225 S Racine Ave,60608,41.835449,-87.655942
3225 South Racine Avenue,60608,41.835449,-87.655942
Wilson and Lake Shore Drive,60614,37.62055,-95.93924
1050 W Pratt Ave,60626,42.005235,-87.680291
2045 N Lincoln Park West,60614,41.919658,-87.636379
5100 N Leavitt St,60625,41.974286,-87.684226
2135 W Foster Ave,60625,41.975981,-87.683169
5101 N Leavitt St,60625,41.97419,-87.684221
5001 N Leavitt St,60625,41.972412,-87.684163
5110 N Damen Ave,60625,41.975187,-87.679392
5001 N Leavitt St,60625,41.972412,-87.684163
6551 S Wolcott Ave,60636,41.774221,-87.671335
1355 E 53rd St,60615,41.799536,-87.592536
3325 E 108th St,60617,41.699136,-87.543168
3945 North Springfield Avenue,60618,41.952955,-87.725076
2914 N Leavitt St,60618,41.935196,-87.683073
7340 S East End Ave,60649,41.760907,-87.583561
7340 S East End Ave,60649,41.760907,-87.583561
6200 S Drexel Ave,60637,41.781893,-87.604352
100 N Central Park Ave,60624,41.881566,-87.715877
5200 S Payne Drive,60615,41.800036,-87.607678
2534 N Greenview Ave,60614,41.927985,-87.665809
